[{"OBJECT_NAME":"STARLINK-5463","OBJECT_ID":"2023-021AX","EPOCH":"2026-03-09T16:02:50.039808","MEAN_MOTION":14.98331273,"ECCENTRICITY":0.00033444,"INCLINATION":70.0007,"RA_OF_ASC_NODE":164.4187,"ARG_OF_PERICENTER":270.3234,"MEAN_ANOMALY":89.7542,"EPHEMERIS_TYPE":0,"CLASSIFICATION_TYPE":"U","NORAD_CAT_ID":55673,"ELEMENT_SET_NO":999,"REV_AT_EPOCH":16928,"BSTAR":-6.0334792e-5,"MEAN_MOTION_DOT":-8.13e-6,"MEAN_MOTION_DDOT":0},{"OBJECT_NAME":"CZ-2C DEB","OBJECT_ID":"2013-035C","EPOCH":"2026-03-09T23:28:11.376480","MEAN_MOTION":14.97090669,"ECCENTRICITY":0.00414021,"INCLINATION":98.2221,"RA_OF_ASC_NODE":340.898,"ARG_OF_PERICENTER":245.2603,"MEAN_ANOMALY":114.4306,"EPHEMERIS_TYPE":0,"CLASSIFICATION_TYPE":"U","NORAD_CAT_ID":39204,"ELEMENT_SET_NO":999,"REV_AT_EPOCH":67473,"BSTAR":0.0018072367,"MEAN_MOTION_DOT":0.00021197,"MEAN_MOTION_DDOT":0}]
